ONEWEB-0716             
1 55177U 23004AP  25183.43502439  .00000016  00000+0  73406-5 0  9994
2 55177  87.9059  75.5109 0001944  85.2870 274.8484 13.17648799121523
ONEWEB-0717             
1 55178U 23004AQ  25182.96252517  .00000029  00000+0  41087-4 0  9994
2 55178  87.9057  75.5636 0001545  54.7681 305.3595 13.17647459121519
ONEWEB-0719             
1 55179U 23004AR  25183.42826748 -.00000260  00000+0 -70265-3 0  9998
2 55179  87.9055  75.4550 0001797  85.6838 274.4499 13.17648194121525
ONEWEB-0530             
1 55796U 23029A   25183.39710302  .00000120  00000+0  26334-3 0  9995
2 55796  87.9273 344.1552 0001316  95.2592 264.8691 13.20770829114974
ONEWEB-0534             
1 55797U 23029B   25182.85417139 -.00000125  00000+0 -33849-3 0  9994
2 55797  87.9272 344.2708 0001883  98.7639 261.3708 13.20771846114901
ONEWEB-0556             
1 55798U 23029C   25183.46655943  .00000091  00000+0  19236-3 0  9994
2 55798  87.9272 344.1409 0001640 120.7431 239.3864 13.20771308114985
ONEWEB-0562             
1 55799U 23029D   25183.45391094  .00000044  00000+0  76390-4 0  9991
2 55799  87.9270 344.1365 0000994 114.6822 245.4415 13.20769754114984
ONEWEB-0563             
1 55800U 23029E   25182.84154926  .00000073  00000+0  14789-3 0  9992
2 55800  87.9271 344.2728 0002062 100.4790 259.6576 13.20773383114895
